[{"OBJECT_NAME":"STARLINK-3315","OBJECT_ID":"2022-001AX","EPOCH":"2026-03-09T12:36:12.160800","MEAN_MOTION":15.08860134,"ECCENTRICITY":0.00012256,"INCLINATION":53.2183,"RA_OF_ASC_NODE":179.8661,"ARG_OF_PERICENTER":74.4783,"MEAN_ANOMALY":285.6345,"EPHEMERIS_TYPE":0,"CLASSIFICATION_TYPE":"U","NORAD_CAT_ID":50848,"ELEMENT_SET_NO":999,"REV_AT_EPOCH":23024,"BSTAR":0.00017476248,"MEAN_MOTION_DOT":2.496e-5,"MEAN_MOTION_DDOT":0},{"OBJECT_NAME":"CZ-6A DEB","OBJECT_ID":"2022-151NM","EPOCH":"2026-03-09T04:15:16.361280","MEAN_MOTION":14.99821734,"ECCENTRICITY":0.00563118,"INCLINATION":98.6044,"RA_OF_ASC_NODE":155.614,"ARG_OF_PERICENTER":130.481,"MEAN_ANOMALY":230.1339,"EPHEMERIS_TYPE":0,"CLASSIFICATION_TYPE":"U","NORAD_CAT_ID":54611,"ELEMENT_SET_NO":999,"REV_AT_EPOCH":17682,"BSTAR":0.0044540946,"MEAN_MOTION_DOT":0.00057345,"MEAN_MOTION_DDOT":0}]
